NORAD_CAT_ID,OBJECT_NAME,OBJECT_TYPE,EPOCH,MEAN_MOTION,ECCENTRICITY,INCLINATION,RA_OF_ASC_NODE,ARG_OF_PERICENTER,MEAN_ANOMALY,BSTAR,MEAN_MOTION_DOT,MEAN_MOTION_DDOT,TLE_LINE0,TLE_LINE1,TLE_LINE2,SEMIMAJOR_AXIS,PERIOD,APOGEE,PERIGEE,DECAYED
51979.0,STARLINK-3656,PAYLOAD,2023-12-12 13:23:14,15.08853841,0.0001415,53.2172,111.8542,68.3534,291.7609,0.00016811,2.39e-05,0.0,0 STARLINK-3656,1 51979U 22025Z   23346.55780342  .00002390  00000-0  16811-3 0  9998,2 51979  53.2172 111.8542 0001415  68.3534 291.7609 15.08853841 97558,6917.838,95.437,540.682,538.724,0.0
51979.0,STARLINK-3656,PAYLOAD,2023-12-12 14:58:37,15.08855195,0.0001492,53.2173,111.5572,65.6157,294.4991,0.00018056,2.588e-05,0.0,0 STARLINK-3656,1 51979U 22025Z   23346.62404239  .00002588  00000-0  18056-3 0  9996,2 51979  53.2173 111.5572 0001492  65.6157 294.4991 15.08855195 98677,6917.834,95.437,540.731,538.667,0.0
51979.0,STARLINK-3656,PAYLOAD,2023-12-13 11:38:37,15.08852959,0.0001363,53.2174,107.6904,90.3606,269.7542,1.3871e-05,-6.7e-07,0.0,0 STARLINK-3656,1 51979U 22025Z   23347.48516085 -.00000067  00000-0  13871-4 0  9996,2 51979  53.2174 107.6904 0001363  90.3606 269.7542 15.08852959 98801,6917.841,95.437,540.649,538.763,0.0
51979.0,STARLINK-3656,PAYLOAD,2023-12-13 14:49:24,15.08852915,0.0001351,53.2174,107.0961,89.9827,270.132,8.1151e-06,-1.59e-06,0.0,0 STARLINK-3656,1 51979U 22025Z   23347.61763958 -.00000159  00000-0  81151-5 0  9993,2 51979  53.2174 107.0961 0001351  89.9827 270.1320 15.08852915 97715,6917.841,95.437,540.641,538.771,0.0
51979.0,STARLINK-3656,PAYLOAD,2023-12-14 11:29:24,15.08843987,0.000148,53.2178,103.2324,98.721,261.3949,-2.8025e-05,-7.34e-06,0.0,0 STARLINK-3656,1 51979U 22025Z   23348.47876103 -.00000734  00000-0 -28025-4 0  9995,2 51979  53.2178 103.2324 0001480  98.7210 261.3949 15.08843987 98952,6917.868,95.437,540.757,538.709,0.0
51979.0,STARLINK-3656,PAYLOAD,2023-12-14 13:04:48,15.08843241,0.0001359,53.2169,102.9301,86.569,273.5458,-3.5953e-05,-8.6e-06,0.0,0 STARLINK-3656,1 51979U 22025Z   23348.54500128 -.00000860  00000-0 -35953-4 0  9992,2 51979  53.2169 102.9301 0001359  86.5690 273.5458 15.08843241 97856,6917.87,95.437,540.676,538.795,0.0
51979.0,STARLINK-3656,PAYLOAD,2023-12-14 14:40:11,15.08844492,0.0001365,53.217,102.6326,85.1976,274.9172,-2.8034e-05,-7.34e-06,0.0,0 STARLINK-3656,1 51979U 22025Z   23348.61123998 -.00000734  00000-0 -28034-4 0  9998,2 51979  53.2170 102.6326 0001365  85.1976 274.9172 15.08844492 97869,6917.867,95.437,540.676,538.787,0.0
51979.0,STARLINK-3656,PAYLOAD,2023-12-15 11:20:12,15.08836118,0.0001367,53.2172,98.7665,89.12,270.9949,-6.2238e-06,-3.87e-06,0.0,0 STARLINK-3656,1 51979U 22025Z   23349.47236331 -.00000387  00000-0 -62238-5 0  9998,2 51979  53.2172  98.7665 0001367  89.1200 270.9949 15.08836118 99101,6917.892,95.438,540.703,538.812,0.0
51979.0,STARLINK-3656,PAYLOAD,2023-12-15 14:30:58,15.08839498,0.0001365,53.2173,98.173,87.1917,272.9231,1.8394e-05,5e-08,0.0,0 STARLINK-3656,1 51979U 22025Z   23349.60484080  .00000005  00000-0  18394-4 0  9997,2 51979  53.2173  98.1730 0001365  87.1917 272.9231 15.08839498 98019,6917.882,95.438,540.691,538.803,0.0
51979.0,STARLINK-3656,PAYLOAD,2023-12-16 12:46:22,15.08847079,0.0001296,53.2173,94.01,87.9491,272.1649,-8.6101e-05,-1.658e-05,0.0,0 STARLINK-3656,1 51979U 22025Z   23350.53220233 -.00001658  00000-0 -86101-4 0  9997,2 51979  53.2173  94.0100 0001296  87.9491 272.1649 15.08847079 98157,6917.859,95.437,540.62,538.827,0.0
51979.0,STARLINK-3656,PAYLOAD,2023-12-17 12:37:10,15.08834473,0.0001355,53.2174,89.5536,99.6371,260.4774,1.3379e-05,-7.5e-07,0.0,0 STARLINK-3656,1 51979U 22025Z   23351.52581045 -.00000075  00000-0  13379-4 0  9996,2 51979  53.2174  89.5536 0001355  99.6371 260.4774 15.08834473 99416,6917.897,95.438,540.7,538.825,0.0
51979.0,STARLINK-3656,PAYLOAD,2023-12-17 14:12:33,15.08815623,0.0001426,53.2176,89.2533,86.1248,273.9907,0.00030824,4.618e-05,0.0,0 STARLINK-3656,1 51979U 22025Z   23351.59205297  .00004618  00000-0  30824-3 0  9994,2 51979  53.2176  89.2533 0001426  86.1248 273.9907 15.08815623 98316,6917.955,95.439,540.806,538.833,0.0
51979.0,STARLINK-3656,PAYLOAD,2023-12-18 10:52:32,15.08852269,0.0001206,53.2175,85.389,86.6099,273.5031,7.253e-05,8.67e-06,0.0,0 STARLINK-3656,1 51979U 22025Z   23352.45315817  .00000867  00000-0  72530-4 0  9993,2 51979  53.2175  85.3890 0001206  86.6099 273.5031 15.08852269 99551,6917.843,95.437,540.542,538.874,0.0
51979.0,STARLINK-3656,PAYLOAD,2023-12-18 14:03:18,15.0885811,0.0001293,53.2175,84.7971,85.2853,274.8287,0.00024442,3.606e-05,0.0,0 STARLINK-3656,1 51979U 22025Z   23352.58562913  .00003606  00000-0  24442-3 0  9990,2 51979  53.2175  84.7971 0001293  85.2853 274.8287 15.08858110 98460,6917.825,95.436,540.585,538.796,0.0
51979.0,STARLINK-3656,PAYLOAD,2023-12-19 10:43:20,15.08843923,0.0001244,53.2176,80.9322,111.1205,248.992,3.0729e-05,2.01e-06,0.0,0 STARLINK-3656,1 51979U 22025Z   23353.44676215  .00000201  00000-0  30729-4 0  9991,2 51979  53.2176  80.9322 0001244 111.1205 248.9920 15.08843923 99705,6917.868,95.437,540.594,538.873,0.0
51979.0,STARLINK-3656,PAYLOAD,2023-12-19 12:18:43,15.08844505,0.000123,53.2177,80.6368,96.423,263.6902,3.9462e-05,3.4e-06,0.0,0 STARLINK-3656,1 51979U 22025Z   23353.51300238  .00000340  00000-0  39462-4 0  9995,2 51979  53.2177  80.6368 0001230  96.4230 263.6902 15.08844505 98600,6917.867,95.437,540.583,538.881,0.0
51979.0,STARLINK-3656,PAYLOAD,2023-12-20 12:09:31,15.08841685,0.0001479,53.2186,76.176,74.2442,285.8713,-0.00014441,-2.586e-05,0.0,0 STARLINK-3656,1 51979U 22025Z   23354.50661234 -.00002586  00000-0 -14441-3 0  9996,2 51979  53.2186  76.1760 0001479  74.2442 285.8713 15.08841685 99861,6917.875,95.437,540.763,538.717,0.0
51979.0,STARLINK-3656,PAYLOAD,2023-12-21 12:00:20,15.08797635,0.0001767,53.2214,71.7215,131.3664,228.748,-8.7783e-05,-1.683e-05,0.0,0 STARLINK-3656,1 51979U 22025Z   23355.50023716 -.00001683  00000-0 -87783-4 0  9991,2 51979  53.2214  71.7215 0001767 131.3664 228.7480 15.08797635100012,6918.01,95.44,541.097,538.652,0.0
51979.0,STARLINK-3656,PAYLOAD,2023-12-22 11:51:04,15.08847803,0.0001278,53.2175,67.2496,82.8376,277.2761,0.00019608,2.835e-05,0.0,0 STARLINK-3656,1 51979U 22025Z   23356.49380630  .00002835  00000-0  19608-3 0  9999,2 51979  53.2175  67.2496 0001278  82.8376 277.2761 15.08847803100166,6917.857,95.437,540.606,538.837,0.0
51979.0,STARLINK-3656,PAYLOAD,2023-12-23 03:44:49,15.09032294,0.0002795,53.2203,64.2868,127.3866,232.7381,0.002169,0.00034585,0.0,0 STARLINK-3656,1 51979U 22025Z   23357.15612383  .00034585  00000-0  21690-2 0  9996,2 51979  53.2203  64.2868 0002795 127.3866 232.7381 15.09032294100268,6917.293,95.425,541.091,537.224,0.0
51979.0,STARLINK-3656,PAYLOAD,2023-12-23 08:31:05,15.08852308,0.0001824,53.2178,63.3845,124.5234,235.5931,-0.00021518,-3.712e-05,0.0,0 STARLINK-3656,1 51979U 22025Z   23357.35492783 -.00003712  00000-0 -21518-3 0  9998,2 51979  53.2178  63.3845 0001824 124.5234 235.5931 15.08852308100294,6917.843,95.437,540.97,538.446,0.0
51979.0,STARLINK-3656,PAYLOAD,2023-12-24 11:32:39,15.08846959,0.0001392,53.2173,58.3307,81.8994,278.2156,4.1724e-05,3.76e-06,0.0,0 STARLINK-3656,1 51979U 22025Z   23358.48101194  .00000376  00000-0  41724-4 0  9999,2 51979  53.2173  58.3307 0001392  81.8994 278.2156 15.08846959100461,6917.859,95.437,540.687,538.761,0.0
51979.0,STARLINK-3656,PAYLOAD,2023-12-24 13:08:02,15.08848492,0.0001546,53.2182,58.0332,104.3656,255.7507,0.00012438,1.693e-05,0.0,0 STARLINK-3656,1 51979U 22025Z   23358.54725026  .00001693  00000-0  12438-3 0  9994,2 51979  53.2182  58.0332 0001546 104.3656 255.7507 15.08848492 99363,6917.854,95.437,540.789,538.65,0.0
51979.0,STARLINK-3656,PAYLOAD,2023-12-25 11:23:26,15.08845175,0.000172,53.218,53.8702,72.0101,288.1079,0.00014662,2.046e-05,0.0,0 STARLINK-3656,1 51979U 22025Z   23359.47461410  .00002046  00000-0  14662-3 0  9995,2 51979  53.2180  53.8702 0001720  72.0101 288.1079 15.08845175100615,6917.865,95.437,540.919,538.54,0.0
51979.0,STARLINK-3656,PAYLOAD,2023-12-26 03:17:18,15.08838203,0.0001476,53.2175,50.8987,98.5713,261.5447,-6.6542e-05,-1.347e-05,0.0,0 STARLINK-3656,1 51979U 22025Z   23360.13701608 -.00001347  00000-0 -66542-4 0  9996,2 51979  53.2175  50.8987 0001476  98.5713 261.5447 15.08838203100710,6917.886,95.438,540.772,538.73,0.0
51979.0,STARLINK-3656,PAYLOAD,2023-12-26 11:14:14,15.0883798,0.0001542,53.2177,49.4114,75.7971,284.3192,1.0989e-05,-1.13e-06,0.0,0 STARLINK-3656,1 51979U 22025Z   23360.46822393 -.00000113  00000-0  10989-4 0  9990,2 51979  53.2177  49.4114 0001542  75.7971 284.3192 15.08837980100761,6917.887,95.438,540.818,538.685,0.0
51979.0,STARLINK-3656,PAYLOAD,2023-12-26 12:49:36,15.08846368,0.0001366,53.2185,49.1092,91.4996,268.6153,5.5367e-05,5.93e-06,0.0,0 STARLINK-3656,1 51979U 22025Z   23360.53445559  .00000593  00000-0  55367-4 0  9993,2 51979  53.2185  49.1092 0001366  91.4996 268.6153 15.08846368 99666,6917.861,95.437,540.671,538.781,0.0
51979.0,STARLINK-3656,PAYLOAD,2023-12-27 03:08:05,15.08843836,0.0001367,53.2175,46.4332,94.194,265.9209,-2.0775e-05,-6.19e-06,0.0,0 STARLINK-3656,1 51979U 22025Z   23361.13061944 -.00000619  00000-0 -20775-4 0  9998,2 51979  53.2175  46.4332 0001367  94.1940 265.9209 15.08843836100866,6917.869,95.437,540.679,538.788,0.0
51979.0,STARLINK-3656,PAYLOAD,2023-12-27 09:29:37,15.08847416,0.0001783,53.2185,45.2479,79.699,280.4203,7.8138e-05,9.56e-06,0.0,0 STARLINK-3656,1 51979U 22025Z   23361.39557546  .00000956  00000-0  78138-4 0  9992,2 51979  53.2185  45.2479 0001783  79.6990 280.4203 15.08847416 99794,6917.858,95.437,540.956,538.489,0.0
51979.0,STARLINK-3656,PAYLOAD,2023-12-28 09:20:25,15.08834737,0.0001798,53.2179,40.7868,98.7542,261.3654,0.0001059,1.397e-05,0.0,0 STARLINK-3656,1 51979U 22025Z   23362.38918152  .00001397  00000-0  10590-3 0  9993,2 51979  53.2179  40.7868 0001798  98.7542 261.3654 15.08834737101053,6917.896,95.438,541.005,538.518,0.0
